STARLINK-36618          
1 67847U 26033AC  26066.25001157 -.00404890  60349-4 -11807-2 0  9999
2 67847  42.9837 284.2084 0001914 262.0545  14.2497 15.91787419  4276
STARLINK-36818          
1 67879U 26035A   26066.25001157 -.01075169  34819-3 -30954-2 0  9996
2 67879  97.2750 358.3996 0001246 116.3481 148.4099 15.93102374  3361
STARLINK-36821          
1 67880U 26035B   26066.25001157 -.01077549  34997-3 -30865-2 0  9990
2 67880  97.2744 358.4029 0001157 110.3413 162.2065 15.93200331  3363
STARLINK-36808          
1 67881U 26035C   26066.25001157 -.01068981  34470-3 -30672-2 0  9993
2 67881  97.2746 358.4009 0001271 114.1003 153.7805 15.93166288  3367
STARLINK-36817          
1 67882U 26035D   26066.25001157 -.01088374  35679-3 -31058-2 0  9993
2 67882  97.2733 358.4062 0001136 110.8925 170.8063 15.93274557  3364
STARLINK-36856          
1 67883U 26035E   26066.25001157 -.01087537  35613-3 -31101-2 0  9991
2 67883  97.2741 358.4046 0001183 113.6945 163.6876 15.93233035  3369
STARLINK-36842          
1 67884U 26035F   26066.25001157 -.01101907  36526-3 -31359-2 0  9999
2 67884  97.2733 358.4080 0001066 102.7547 183.0251 15.93328607  3369
STARLINK-36826          
1 67885U 26035G   26066.25001157 -.01100256  36447-3 -31211-2 0  9995
2 67885  97.2732 358.4095 0001121 112.1739 177.0165 15.93390034  3365
STARLINK-36390          
1 67886U 26035H   26066.25001157 -.01106036  36816-3 -31319-2 0  9997
2 67886  97.2726 358.4113 0001084 114.3410 179.6531 15.93425088  3417
STARLINK-36368          
1 67887U 26035J   26066.25001157 -.01098139  36344-3 -31035-2 0  9993
2 67887  97.2725 358.4132 0001263 116.9777 181.6150 15.93460954  3366
STARLINK-36801          
1 67888U 26035K   26066.25001157 -.01103888  36715-3 -31120-2 0  9999
2 67888  97.2721 358.4150 0001313 121.9044 181.1432 15.93509014  3361
STARLINK-36372          
1 67889U 26035L   26066.25001157 -.01115009  37443-3 -31270-2 0  9993
2 67889  97.2713 358.4182 0001288 119.5498 192.1159 15.93610392  3365
STARLINK-36363          
1 67890U 26035M   26066.25001157 -.01118926  37664-3 -31479-2 0  9992
2 67890  97.2721 358.4172 0001153 115.0934 192.8890 15.93550942  3365
STARLINK-36816          
1 67891U 26035N   26066.25001157 -.01349116  53575-3 -36861-2 0  9999
2 67891  97.2704 358.4429 0001026 109.1804 266.1005 15.94141976  3256
STARLINK-36813          
1 67892U 26035P   26066.25001157 -.01277327  48329-3 -35217-2 0  9999
2 67892  97.2693 358.4306 0001110 114.2133 232.4344 15.93959098  3369
STARLINK-36803          
1 67893U 26035Q   26066.25001157 -.01115660  37497-3 -31232-2 0  9998
2 67893  97.2712 358.4202 0001293 119.0607 197.8237 15.93645123  3364
