[{"OBJECT_NAME":"STARLINK-36618","OBJECT_ID":"2026-033AC","EPOCH":"2026-03-07T06:00:00.999648","MEAN_MOTION":15.91787419,"ECCENTRICITY":0.00019141,"INCLINATION":42.9837,"RA_OF_ASC_NODE":284.2084,"ARG_OF_PERICENTER":262.0545,"MEAN_ANOMALY":14.2497,"EPHEMERIS_TYPE":0,"CLASSIFICATION_TYPE":"U","NORAD_CAT_ID":67847,"ELEMENT_SET_NO":999,"REV_AT_EPOCH":427,"BSTAR":-0.0011807309,"MEAN_MOTION_DOT":-0.0040489,"MEAN_MOTION_DDOT":6.0349047e-5},{"OBJECT_NAME":"STARLINK-36818","OBJECT_ID":"2026-035A","EPOCH":"2026-03-07T06:00:00.999648","MEAN_MOTION":15.93102374,"ECCENTRICITY":0.00012467,"INCLINATION":97.275,"RA_OF_ASC_NODE":358.3996,"ARG_OF_PERICENTER":116.3481,"MEAN_ANOMALY":148.4099,"EPHEMERIS_TYPE":0,"CLASSIFICATION_TYPE":"U","NORAD_CAT_ID":67879,"ELEMENT_SET_NO":999,"REV_AT_EPOCH":336,"BSTAR":-0.0030953601,"MEAN_MOTION_DOT":-0.01075169,"MEAN_MOTION_DDOT":0.0003481855},{"OBJECT_NAME":"STARLINK-36821","OBJECT_ID":"2026-035B","EPOCH":"2026-03-07T06:00:00.999648","MEAN_MOTION":15.93200331,"ECCENTRICITY":0.00011572,"INCLINATION":97.2744,"RA_OF_ASC_NODE":358.4029,"ARG_OF_PERICENTER":110.3413,"MEAN_ANOMALY":162.2065,"EPHEMERIS_TYPE":0,"CLASSIFICATION_TYPE":"U","NORAD_CAT_ID":67880,"ELEMENT_SET_NO":999,"REV_AT_EPOCH":336,"BSTAR":-0.0030865209,"MEAN_MOTION_DOT":-0.01077549,"MEAN_MOTION_DDOT":0.00034996804},{"OBJECT_NAME":"STARLINK-36808","OBJECT_ID":"2026-035C","EPOCH":"2026-03-07T06:00:00.999648","MEAN_MOTION":15.93166288,"ECCENTRICITY":0.00012712,"INCLINATION":97.2746,"RA_OF_ASC_NODE":358.4009,"ARG_OF_PERICENTER":114.1003,"MEAN_ANOMALY":153.7805,"EPHEMERIS_TYPE":0,"CLASSIFICATION_TYPE":"U","NORAD_CAT_ID":67881,"ELEMENT_SET_NO":999,"REV_AT_EPOCH":336,"BSTAR":-0.0030671798,"MEAN_MOTION_DOT":-0.01068981,"MEAN_MOTION_DDOT":0.00034470329},{"OBJECT_NAME":"STARLINK-36817","OBJECT_ID":"2026-035D","EPOCH":"2026-03-07T06:00:00.999648","MEAN_MOTION":15.93274557,"ECCENTRICITY":0.00011361,"INCLINATION":97.2733,"RA_OF_ASC_NODE":358.4062,"ARG_OF_PERICENTER":110.8925,"MEAN_ANOMALY":170.8063,"EPHEMERIS_TYPE":0,"CLASSIFICATION_TYPE":"U","NORAD_CAT_ID":67882,"ELEMENT_SET_NO":999,"REV_AT_EPOCH":336,"BSTAR":-0.003105753,"MEAN_MOTION_DOT":-0.01088374,"MEAN_MOTION_DDOT":0.00035678679},{"OBJECT_NAME":"STARLINK-36856","OBJECT_ID":"2026-035E","EPOCH":"2026-03-07T06:00:00.999648","MEAN_MOTION":15.93233035,"ECCENTRICITY":0.00011834,"INCLINATION":97.2741,"RA_OF_ASC_NODE":358.4046,"ARG_OF_PERICENTER":113.6945,"MEAN_ANOMALY":163.6876,"EPHEMERIS_TYPE":0,"CLASSIFICATION_TYPE":"U","NORAD_CAT_ID":67883,"ELEMENT_SET_NO":999,"REV_AT_EPOCH":336,"BSTAR":-0.0031100507,"MEAN_MOTION_DOT":-0.01087537,"MEAN_MOTION_DDOT":0.00035612653},{"OBJECT_NAME":"STARLINK-36842","OBJECT_ID":"2026-035F","EPOCH":"2026-03-07T06:00:00.999648","MEAN_MOTION":15.93328607,"ECCENTRICITY":0.00010665,"INCLINATION":97.2733,"RA_OF_ASC_NODE":358.408,"ARG_OF_PERICENTER":102.7547,"MEAN_ANOMALY":183.0251,"EPHEMERIS_TYPE":0,"CLASSIFICATION_TYPE":"U","NORAD_CAT_ID":67884,"ELEMENT_SET_NO":999,"REV_AT_EPOCH":336,"BSTAR":-0.0031358583,"MEAN_MOTION_DOT":-0.01101907,"MEAN_MOTION_DDOT":0.00036525999},{"OBJECT_NAME":"STARLINK-36826","OBJECT_ID":"2026-035G","EPOCH":"2026-03-07T06:00:00.999648","MEAN_MOTION":15.93390034,"ECCENTRICITY":0.00011219,"INCLINATION":97.2732,"RA_OF_ASC_NODE":358.4095,"ARG_OF_PERICENTER":112.1739,"MEAN_ANOMALY":177.0165,"EPHEMERIS_TYPE":0,"CLASSIFICATION_TYPE":"U","NORAD_CAT_ID":67885,"ELEMENT_SET_NO":999,"REV_AT_EPOCH":336,"BSTAR":-0.003121087,"MEAN_MOTION_DOT":-0.01100256,"MEAN_MOTION_DDOT":0.00036447333},{"OBJECT_NAME":"STARLINK-36390","OBJECT_ID":"2026-035H","EPOCH":"2026-03-07T06:00:00.999648","MEAN_MOTION":15.93425088,"ECCENTRICITY":0.00010844,"INCLINATION":97.2726,"RA_OF_ASC_NODE":358.4113,"ARG_OF_PERICENTER":114.341,"MEAN_ANOMALY":179.6531,"EPHEMERIS_TYPE":0,"CLASSIFICATION_TYPE":"U","NORAD_CAT_ID":67886,"ELEMENT_SET_NO":999,"REV_AT_EPOCH":341,"BSTAR":-0.0031318943,"MEAN_MOTION_DOT":-0.01106036,"MEAN_MOTION_DDOT":0.00036816224},{"OBJECT_NAME":"STARLINK-36368","OBJECT_ID":"2026-035J","EPOCH":"2026-03-07T06:00:00.999648","MEAN_MOTION":15.93460954,"ECCENTRICITY":0.00012636,"INCLINATION":97.2725,"RA_OF_ASC_NODE":358.4132,"ARG_OF_PERICENTER":116.9777,"MEAN_ANOMALY":181.615,"EPHEMERIS_TYPE":0,"CLASSIFICATION_TYPE":"U","NORAD_CAT_ID":67887,"ELEMENT_SET_NO":999,"REV_AT_EPOCH":336,"BSTAR":-0.0031034706,"MEAN_MOTION_DOT":-0.01098139,"MEAN_MOTION_DDOT":0.00036343669},{"OBJECT_NAME":"STARLINK-36801","OBJECT_ID":"2026-035K","EPOCH":"2026-03-07T06:00:00.999648","MEAN_MOTION":15.93509014,"ECCENTRICITY":0.00013131,"INCLINATION":97.2721,"RA_OF_ASC_NODE":358.415,"ARG_OF_PERICENTER":121.9044,"MEAN_ANOMALY":181.1432,"EPHEMERIS_TYPE":0,"CLASSIFICATION_TYPE":"U","NORAD_CAT_ID":67888,"ELEMENT_SET_NO":999,"REV_AT_EPOCH":336,"BSTAR":-0.003112009,"MEAN_MOTION_DOT":-0.01103888,"MEAN_MOTION_DDOT":0.00036715165},{"OBJECT_NAME":"STARLINK-36372","OBJECT_ID":"2026-035L","EPOCH":"2026-03-07T06:00:00.999648","MEAN_MOTION":15.93610392,"ECCENTRICITY":0.00012889,"INCLINATION":97.2713,"RA_OF_ASC_NODE":358.4182,"ARG_OF_PERICENTER":119.5498,"MEAN_ANOMALY":192.1159,"EPHEMERIS_TYPE":0,"CLASSIFICATION_TYPE":"U","NORAD_CAT_ID":67889,"ELEMENT_SET_NO":999,"REV_AT_EPOCH":336,"BSTAR":-0.0031270114,"MEAN_MOTION_DOT":-0.01115009,"MEAN_MOTION_DDOT":0.00037442697},{"OBJECT_NAME":"STARLINK-36363","OBJECT_ID":"2026-035M","EPOCH":"2026-03-07T06:00:00.999648","MEAN_MOTION":15.93550942,"ECCENTRICITY":0.00011538,"INCLINATION":97.2721,"RA_OF_ASC_NODE":358.4172,"ARG_OF_PERICENTER":115.0934,"MEAN_ANOMALY":192.889,"EPHEMERIS_TYPE":0,"CLASSIFICATION_TYPE":"U","NORAD_CAT_ID":67890,"ELEMENT_SET_NO":999,"REV_AT_EPOCH":336,"BSTAR":-0.0031479075,"MEAN_MOTION_DOT":-0.01118926,"MEAN_MOTION_DDOT":0.00037663979},{"OBJECT_NAME":"STARLINK-36816","OBJECT_ID":"2026-035N","EPOCH":"2026-03-07T06:00:00.999648","MEAN_MOTION":15.94141976,"ECCENTRICITY":0.00010266,"INCLINATION":97.2704,"RA_OF_ASC_NODE":358.4429,"ARG_OF_PERICENTER":109.1804,"MEAN_ANOMALY":266.1005,"EPHEMERIS_TYPE":0,"CLASSIFICATION_TYPE":"U","NORAD_CAT_ID":67891,"ELEMENT_SET_NO":999,"REV_AT_EPOCH":325,"BSTAR":-0.0036860907,"MEAN_MOTION_DOT":-0.01349116,"MEAN_MOTION_DDOT":0.00053575102},{"OBJECT_NAME":"STARLINK-36813","OBJECT_ID":"2026-035P","EPOCH":"2026-03-07T06:00:00.999648","MEAN_MOTION":15.93959098,"ECCENTRICITY":0.00011101,"INCLINATION":97.2693,"RA_OF_ASC_NODE":358.4306,"ARG_OF_PERICENTER":114.2133,"MEAN_ANOMALY":232.4344,"EPHEMERIS_TYPE":0,"CLASSIFICATION_TYPE":"U","NORAD_CAT_ID":67892,"ELEMENT_SET_NO":999,"REV_AT_EPOCH":336,"BSTAR":-0.0035217135,"MEAN_MOTION_DOT":-0.01277327,"MEAN_MOTION_DDOT":0.00048329074},{"OBJECT_NAME":"STARLINK-36803","OBJECT_ID":"2026-035Q","EPOCH":"2026-03-07T06:00:00.999648","MEAN_MOTION":15.93645123,"ECCENTRICITY":0.00012937,"INCLINATION":97.2712,"RA_OF_ASC_NODE":358.4202,"ARG_OF_PERICENTER":119.0607,"MEAN_ANOMALY":197.8237,"EPHEMERIS_TYPE":0,"CLASSIFICATION_TYPE":"U","NORAD_CAT_ID":67893,"ELEMENT_SET_NO":999,"REV_AT_EPOCH":336,"BSTAR":-0.0031231668,"MEAN_MOTION_DOT":-0.0111566,"MEAN_MOTION_DDOT":0.00037496558}]
